0 OPS 1264 (DMSP 4A F4)
1 02980U 67096A   13281.61658881  .00000206  00000-0  54194-4 0   946
2 02980 099.2156 143.2939 0102034 103.0783 258.1825 14.57984705431926
0 OPS 1264 (DMSP 4A F4)
1 02980U 67096A   13282.71462738  .00000229  00000-0  58783-4 0   956
2 02980 099.2155 144.5099 0102027 099.7964 261.4771 14.57986947432085
0 OPS 1264 (DMSP 4A F4)
1 02980U 67096A   13283.74403695  .00000258  00000-0  64797-4 0   962
2 02980 099.2153 145.6498 0102042 096.7157 264.5664 14.57987959432232
0 OPS 1264 (DMSP 4A F4)
1 02980U 67096A   13285.45971659  .00000255  00000-0  64106-4 0   974
2 02980 099.2149 147.5498 0102030 091.5903 269.6983 14.57988500432487
0 OPS 1264 (DMSP 4A F4)
1 02980U 67096A   13286.48912302  .00000263  00000-0  65829-4 0   981
2 02980 099.2146 148.6897 0102012 088.5202 272.7677 14.57989076432638
0 OPS 1264 (DMSP 4A F4)
1 02980U 67096A   13287.79303628  .00000362  00000-0  85770-4 0   999
2 02980 099.2142 150.1336 0101983 084.6198 276.6622 14.57990562432823
0 OPS 1264 (DMSP 4A F4)
1 02980U 67096A   13289.09694728  .00000379  00000-0  89297-4 0  1007
2 02980 099.2139 151.5776 0101955 080.7246 280.5463 14.57992748433019
0 OPS 1264 (DMSP 4A F4)
1 02980U 67096A   13290.46948202  .00000384  00000-0  90350-4 0  1018
2 02980 099.2137 153.0975 0101933 076.6123 284.6412 14.57993709433218
0 OPS 1264 (DMSP 4A F4)
1 02980U 67096A   13291.49888187  .00000365  00000-0  86489-4 0  1025
2 02980 099.2136 154.2373 0101931 073.5353 287.7015 14.57994469433364
0 OPS 1264 (DMSP 4A F4)
1 02980U 67096A   13292.73415983  .00000425  00000-0  98534-4 0  1035
2 02980 099.2135 155.6050 0101896 069.8399 291.3723 14.57995064433547
0 OPS 1264 (DMSP 4A F4)
1 02980U 67096A   13293.76355701  .00000414  00000-0  96456-4 0  1040
2 02980 099.2134 156.7447 0101872 066.7591 294.4292 14.57995981433691
0 OPS 1264 (DMSP 4A F4)
1 02980U 67096A   13295.13608469  .00000432  00000-0  10013-3 0  1050
2 02980 099.2133 158.2644 0101778 062.6459 298.5052 14.57997515433895
